C/2009 P2 (Boattini),h,02/12.8408/2010,163.4369,60.4882,76.2762,1.002465,6.537878,2000,6.0,4.0
# From MPC 75710
P/2009 Q1 (Hill),e,14.4966,173.9499,157.4184,5.511933,0.0761637,0.49412121,180.4638,12/17.0/2015,2000,g 11.5,4.0
# From MPC 72850
P/2009 Q4 (Boattini),e,10.9800,127.5941,320.1271,3.136465,0.1774367,0.58015664,33.1150,12/17.0/2015,2000,g 15.5,4.0
# From MPC 68902
P/2009 Q5 (McNaught),e,40.8539,160.1777,209.2772,7.455343,0.0484175,0.60700011,111.1444,12/17.0/2015,2000,g 10.0,4.0
# From MPC 82315
C/2009 R1 (McNaught),h,07/02.3596/2010,77.1095,322.3301,130.8954,1.000378,0.410601,2000,8.0,4.0
# From MPC 75711
P/2009 S2 (McNaught),e,28.4142,121.5807,230.4040,4.168378,0.1158120,0.46871475,274.8349,12/17.0/2015,2000,g 14.0,4.0
# From MPC 87062
C/2009 S3 (Lemmon),e,60.4285,225.1508,129.8333,11364,0.0000008,0.99943013,0.0000,12/11.6584/2011,2000,g  6.5,4.0
# From MPC 78184
P/2009 SK280 (Spacewatch-Hill),e,16.8036,36.4250,328.0949,4.777239,0.0943928,0.11853134,226.9953,12/17.0/2015,2000,g 11.0,4.0
# From MPC 76567
C/2009 T1 (McNaught),e,89.9829,54.4382,282.6629,1026,0.0000300,0.99392531,0.0000,10/07.2403/2009,2000,g  6.5,4.0
# From MPC 75711
P/2009 T2 (La Sagra),e,27.5472,215.7598,216.5770,7.730539,0.0458553,0.76604396,99.3618,12/17.0/2015,2000,g 14.0,4.0
# From MPC 82315
C/2009 T3 (LINEAR),h,01/13.1776/2010,148.6682,60.1500,32.5037,1.000052,2.277092,2000,12.5,4.0
# From MPC 70812
C/2009 U3 (Hill),e,51.1322,49.1621,77.8054,180.0507,0.0004080,0.99214595,0.0000,03/20.9079/2010,2000,g 13.0,4.0
# From MPC 75711
P/2009 U4 (McNaught),e,10.0810,55.3960,259.8884,5.074945,0.0862099,0.67495928,198.2380,12/17.0/2015,2000,g 14.0,4.0
# From MPC 82315
C/2009 U5 (Grauer),h,06/24.5257/2010,25.4628,120.9909,24.1826,1.004512,6.110476,2000,7.0,4.0
# From MPC 82315
C/2009 UG89 (Lemmon),h,12/13.7870/2010,130.0682,321.0552,60.5676,1.005716,3.930671,2000,9.0,4.0
# From MPC 72851
C/2009 W2 (Boattini),e,164.5061,199.6241,121.7265,6228,0.0000020,0.99888830,0.0000,05/06.4289/2010,2000,g  7.0,4.0
# From MPC 75711
P/2009 WX51 (Catalina),e,9.6003,31.6797,118.0842,3.075221,0.1827636,0.74106198,31.9366,12/17.0/2015,2000,g 19.0,2.0
# From MPC 82316
C/2009 Y1 (Catalina),e,107.3492,160.3700,127.3206,361.1161,0.0001436,0.99304299,0.0000,01/29.5181/2011,2000,g  9.0,4.0
# From MPC 74247
P/2009 Y2 (Kowalski),e,29.9727,262.0100,172.4170,6.535396,0.0589924,0.63873408,123.2599,12/17.0/2015,2000,g 13.0,4.0
# From MPC 69417
P/2010 A1 (Hill),e,10.3125,47.3452,13.3599,4.385188,0.1073302,0.55429584,249.1557,12/17.0/2015,2000,g 13.0,4.0
# From MPC 86226
P/2010 A2 (LINEAR),e,5.2564,320.2276,132.8675,2.290393,0.2843407,0.12457815,266.9301,12/17.0/2015,2000,g 15.5,4.0
# From MPC 75711
P/2010 A3 (Hill),e,15.0059,64.7621,41.3904,6.070912,0.0658906,0.73272061,137.2084,12/17.0/2015,2000,g 14.0,4.0
# From MPC 77403
C/2010 A4 (Siding Spring),e,96.8078,346.7468,271.6865,283.6316,0.0002063,0.99036200,0.0000,10/09.6589/2010,2000,g 12.5,4.0
# From MPC 72851
P/2010 A5 (LINEAR),e,5.7841,277.7849,306.8634,5.092634,0.0857611,0.66470497,177.2629,12/17.0/2015,2000,g 13.0,4.0
# From MPC 80896
C/2010 B1 (Cardinal),h,02/07.9748/2011,101.9305,277.2255,211.6830,1.000214,2.947249,2000,7.5,4.0
# From MPC 75712
P/2010 B2 (WISE),e,8.9386,0.8519,155.9407,3.106203,0.1800360,0.48106010,33.5896,12/17.0/2015,2000,g 17.0,4.0
# From MPC 75008
P/2010 C1 (Scotti),e,9.1405,141.8787,3.9020,7.084614,0.0522673,0.26126559,115.1923,12/17.0/2015,2000,g  9.5,4.0
# From MPC 75712
P/2010 D1 (WISE),e,9.6306,160.8109,226.2432,4.162862,0.1160422,0.35432207,274.8917,12/17.0/2015,2000,g 13.0,4.0
# From MPC 75008
P/2010 D2 (WISE),e,57.1237,319.7838,120.3820,6.709260,0.0567142,0.45192475,119.9107,12/17.0/2015,2000,g 16.0,4.0
# From MPC 84315
C/2010 D3 (WISE),e,76.3671,255.1671,304.5394,66689,0.0000001,0.99993645,0.0000,09/04.1202/2010,2000,g  9.0,4.0
# From MPC 76025
C/2010 D4 (WISE),e,105.6986,266.7965,44.3066,62.07873,0.0020151,0.88492253,4.9515,12/17.0/2015,2000,g  6.5,4.0
# From MPC 74248
C/2010 DG56 (WISE),e,160.4090,4.1459,318.5287,68.48873,0.0017389,0.97682763,0.0000,05/16.8069/2010,2000,g 16.0,4.0
# From MPC 70361
C/2010 E1 (Garradd),e,71.5939,169.1255,297.1292,113.0600,0.0008199,0.97636863,0.0000,11/06.8646/2009,2000,g 11.5,4.0
# From MPC 75009
P/2010 E2 (Jarnac),e,15.4714,177.8072,8.2245,8.614717,0.0389801,0.72278512,80.9691,12/17.0/2015,2000,g 14.0,4.0
# From MPC 70361
C/2010 E5 (Scotti),e,18.9086,16.9219,147.9222,24.90555,0.0079298,0.84394893,17.5707,12/17.0/2015,2000,g 10.5,4.0
# From MPC 72132
C/2010 F1 (Boattini),e,64.8461,344.2625,127.6952,69.68043,0.0016945,0.94833029,3.7757,12/17.0/2015,2000,g  9.5,4.0
# From MPC 82316
C/2010 F3 (Scotti),e,4.6503,157.3092,31.3056,63.75911,0.0019359,0.91460643,3.7941,12/17.0/2015,2000,g  8.5,4.0
# From MPC 82316
C/2010 FB87 (WISE-Garradd),e,107.7374,89.9430,265.0354,222.3561,0.0002973,0.98717611,0.0000,11/04.8072/2010,2000,g 10.0,4.0
# From MPC 70816
C/2010 G1 (Boattini),e,78.3719,287.4189,168.8219,540.8835,0.0000784,0.99775525,0.0000,04/02.4250/2010,2000,g 12.5,4.0
# From MPC 83142
C/2010 G2 (Hill),e,103.7685,246.9064,137.4767,94.03207,0.0010809,0.97889953,0.0000,09/01.6795/2011,2000,g  8.0,4.0
# From MPC 75292
C/2010 G3 (WISE),e,108.2247,313.7615,75.1583,1067,0.0000283,0.99539741,0.0000,04/07.9412/2010,2000,g  8.5,4.0
# From MPC 82316
C/2010 H1 (Garradd),e,36.6118,347.3559,233.6958,1929,0.0000116,0.99858192,0.0000,06/19.9363/2010,2000,g 13.0,4.0
# From MPC 72851
P/2010 H2 (Vales),e,14.2624,64.2975,129.6526,3.840943,0.1309324,0.19377386,276.2284,12/17.0/2015,2000,g  6.0,4.0
# From MPC 70361
P/2010 H3 (SOHO),e,23.8949,78.3266,24.8590,3.068774,0.1833398,0.98469454,0.0000,09/25.8189/2015,2000,g 20.0,2.0
# From MPC 73463
P/2010 H4 (Scotti),e,2.3226,44.7593,179.2575,6.581452,0.0583743,0.26864362,117.2820,12/17.0/2015,2000,g 10.5,4.0
# From MPC 74637
P/2010 H5 (Scotti),e,14.0860,24.8063,174.6494,7.133230,0.0517338,0.15658733,107.3608,12/17.0/2015,2000,g 13.0,2.0
# From MPC 71278
C/2010 J1 (Boattini),e,134.4342,254.7313,332.8467,36.03617,0.0045561,0.95316223,9.7618,12/17.0/2015,2000,g 12.0,4.0
# From MPC 75712
C/2010 J2 (McNaught),e,125.8477,311.8718,4.4778,1877,0.0000121,0.99820145,0.0000,06/02.8342/2010,2000,g  9.0,4.0
# From MPC 82316
P/2010 J3 (McMillan),e,13.2554,106.5566,157.3759,8.960339,0.0367466,0.72655959,71.3435,12/17.0/2015,2000,g 11.0,4.0
# From MPC 76025
P/2010 J5 (McNaught),e,7.3555,65.6623,148.8835,4.103648,0.1185629,0.08713956,266.2078,12/17.0/2015,2000,g 10.0,4.0
# From MPC 84315
P/2010 JC81 (WISE),e,38.6166,30.8289,12.6429,8.137287,0.0424605,0.77633438,72.0673,12/17.0/2015,2000,g  9.0,4.0
# From MPC 74248
C/2010 KW7 (WISE),e,147.0810,104.9149,332.5997,97.13441,0.0010295,0.97341268,0.0000,10/10.9096/2010,2000,g 15.0,2.0
# From MPC 83518
C/2010 L3 (Catalina),h,11/10.9067/2010,102.5249,38.2855,121.8131,1.002038,9.887470,2000,4.5,4.0
# From MPC 74248
C/2010 L4 (WISE),e,102.8658,125.5574,95.6981,80.05406,0.0013760,0.96483057,2.9182,12/17.0/2015,2000,g 11.5,4.0
# From MPC 74248
C/2010 L5 (WISE),e,146.8765,206.3828,214.3702,8.031757,0.0433000,0.90281193,89.3548,12/17.0/2015,2000,g 18.0,4.0
# From MPC 70817
C/2010 M1 (Gibbs),p,02/07.840/2012,78.373,265.318,2.29869,82.150,2000,9.0,4.0
# From MPC 75712
P/2010 N1 (WISE),e,15.3616,106.1078,160.8110,3.289366,0.1652098,0.49673779,325.2644,12/17.0/2015,2000,g 17.0,4.0
# From MPC 73463
P/2010 P4 (WISE),e,24.0795,2.2354,354.1608,3.703909,0.1382654,0.49746084,275.5980,12/17.0/2015,2000,g 19.5,6.0
# From MPC 88325
C/2010 R1 (LINEAR),e,156.9239,343.6771,114.5088,20986,0.0000003,0.99973183,0.0000,05/17.2166/2012,2000,g  6.0,4.0
# From MPC 95208
C/2010 S1 (LINEAR),h,05/20.0214/2013,125.3201,93.4346,118.5753,1.002987,5.897902,2000,3.5,4.0
# From MPC 74248
P/2010 T2 (PANSTARRS),e,8.0289,59.5819,355.9196,5.492708,0.0765639,0.31623560,124.3252,12/17.0/2015,2000,g 11.5,4.0
# From MPC 81468
P/2010 TO20 (LINEAR-Grauer),e,2.4819,43.3083,272.3239,5.795886,0.0706357,0.05507764,176.3361,12/17.0/2015,2000,g  9.0,4.0
# From MPC 82316
P/2010 U1 (Boattini),e,8.2293,280.8998,86.3981,6.514938,0.0592705,0.24874000,126.5924,12/17.0/2015,2000,g  9.5,4.0
# From MPC 74249
P/2010 U2 (Hill),e,16.8310,357.1132,44.4256,4.281109,0.1112678,0.40060778,207.6729,12/17.0/2015,2000,g 13.0,4.0
# From MPC 96864
C/2010 U3 (Boattini),h,02/24.8743/2019,55.4978,43.0578,88.0207,1.002638,8.447907,2000,1.0,4.0
# From MPC 79021
P/2010 UH55 (Spacewatch),e,8.6689,235.2569,222.0928,6.557430,0.0586953,0.57614036,98.5144,12/17.0/2015,2000,g 11.0,4.0
# From MPC 91611
P/2010 V1 (Ikeya-Murakami),e,9.3875,3.7792,152.4037,3.079038,0.1824238,0.48928170,344.6470,12/17.0/2015,2000,g  8.0,4.0
# From MPC 75009
P/2010 WK (LINEAR),e,11.4235,11.4251,41.1539,5.751593,0.0714532,0.69016656,134.8229,12/17.0/2015,2000,g 14.5,2.0
# From MPC 76025
C/2010 X1 (Elenin),e,1.8638,322.3458,344.3568,484.1794,0.0000925,0.99901686,0.0000,09/09.4304/2011,2000,g 10.0,4.0
# From MPC 82317
P/2011 A2 (Scotti),e,4.4753,54.6767,94.6457,3.104662,0.1801700,0.49980560,327.5653,12/17.0/2015,2000,g 16.5,4.0
# From MPC 85831
C/2011 A3 (Gibbs),e,26.0800,124.8794,141.0107,719.6684,0.0000511,0.99675337,0.0000,12/16.2459/2011,2000,g 10.0,4.0
# From MPC 82317
C/2011 C1 (McNaught),e,16.3060,191.2286,85.7617,490.6202,0.0000907,0.99819522,0.0000,04/17.2549/2011,2000,g 15.5,4.0
# From MPC 84021
P/2011 C2 (Gibbs),e,10.8907,12.1146,160.8455,7.398094,0.0489806,0.27137994,70.3479,12/17.0/2015,2000,g  9.0,4.0
# From MPC 75516
C/2011 C3 (Gibbs),e,49.5103,20.8340,206.7432,285.1842,0.0002047,0.99469994,0.0000,04/08.1155/2011,2000,g 17.0,4.0
# From MPC 86639
P/2011 CR42 (Catalina),e,8.4635,58.7262,173.2680,3.506117,0.1501289,0.28053790,221.9536,12/17.0/2015,2000,g 13.0,2.0
# From MPC 89309
C/2011 F1 (LINEAR),e,56.6457,85.0755,192.4846,2130,0.0000100,0.99914704,0.0000,01/07.8816/2013,2000,g  5.0,4.0
# From MPC 79866
P/2011 FR143 (Lemmon),e,16.0176,190.9268,349.9940,6.836430,0.0551391,0.45407182,96.0126,12/17.0/2015,2000,g 14.0,2.0
# From MPC 80044
